NORAD_CAT_ID,OBJECT_NAME,OBJECT_TYPE,EPOCH,MEAN_MOTION,ECCENTRICITY,INCLINATION,RA_OF_ASC_NODE,ARG_OF_PERICENTER,MEAN_ANOMALY,BSTAR,MEAN_MOTION_DOT,MEAN_MOTION_DDOT,TLE_LINE0,TLE_LINE1,TLE_LINE2,SEMIMAJOR_AXIS,PERIOD,APOGEE,PERIGEE,DECAYED
51714.0,STARLINK-3528,PAYLOAD,2023-02-16 16:11:01,15.08837072,0.0001899,53.2155,303.6016,99.6475,260.4732,-0.00025523,-4.348e-05,0.0,0 STARLINK-3528,1 51714U 22016A   23047.67431930 -.00004348  00000-0 -25523-3 0  9999,2 51714  53.2155 303.6016 0001899  99.6475 260.4732 15.08837072 55855,6917.889,95.438,541.068,538.441,0.0
51714.0,STARLINK-3528,PAYLOAD,2023-02-16 17:46:24,15.08844539,0.0002341,53.2155,303.3047,96.8617,263.2641,-2.8568e-05,-7.43e-06,0.0,0 STARLINK-3528,1 51714U 22016A   23047.74055860 -.00000743  00000-0 -28568-4 0  9999,2 51714  53.2155 303.3047 0002341  96.8617 263.2641 15.08844539 54806,6917.867,95.437,541.351,538.112,0.0
51714.0,STARLINK-3528,PAYLOAD,2023-02-17 09:40:16,15.08825216,0.0001446,53.2151,300.3312,105.5756,254.5396,-0.00023329,-3.997e-05,0.0,0 STARLINK-3528,1 51714U 22016A   23048.40296506 -.00003997  00000-0 -23329-3 0  9990,2 51714  53.2151 300.3312 0001446 105.5756 254.5396 15.08825216 54903,6917.926,95.438,540.791,538.79,0.0
51714.0,STARLINK-3528,PAYLOAD,2023-02-17 20:47:59,15.08815254,0.0001831,53.2157,298.25,104.507,255.6126,-5.8145e-05,-1.213e-05,0.0,0 STARLINK-3528,1 51714U 22016A   23048.86665672 -.00001213  00000-0 -58145-4 0  9998,2 51714  53.2157 298.2500 0001831 104.5070 255.6126 15.08815254 54970,6917.956,95.439,541.088,538.554,0.0
51714.0,STARLINK-3528,PAYLOAD,2023-02-17 23:58:45,15.08812311,0.0001586,53.2161,297.6552,110.1324,249.9839,-4.0099e-05,-9.26e-06,0.0,0 STARLINK-3528,1 51714U 22016A   23048.99913935 -.00000926  00000-0 -40099-4 0  9999,2 51714  53.2161 297.6552 0001586 110.1324 249.9839 15.08812311 56056,6917.965,95.439,540.927,538.733,0.0
51714.0,STARLINK-3528,PAYLOAD,2023-02-18 09:31:04,15.08828481,0.0001559,53.2159,295.872,114.2786,245.8369,0.00033219,5.001e-05,0.0,0 STARLINK-3528,1 51714U 22016A   23049.39657965  .00005001  00000-0  33219-3 0  9994,2 51714  53.2159 295.8720 0001559 114.2786 245.8369 15.08828481 56112,6917.916,95.438,540.859,538.702,0.0
51714.0,STARLINK-3528,PAYLOAD,2023-02-18 22:14:09,15.08858544,0.0001353,53.2156,293.4931,114.6949,245.4184,0.0011912,0.0001873,0.0,0 STARLINK-3528,1 51714U 22016A   23049.92649592  .00018730  00000-0  11912-2 0  9998,2 51714  53.2156 293.4931 0001353 114.6949 245.4184 15.08858544 56196,6917.824,95.436,540.625,538.753,0.0
51714.0,STARLINK-3528,PAYLOAD,2023-02-19 09:21:50,15.08860269,0.0001285,53.2148,291.4101,105.9225,254.1909,0.00070971,0.00011031,0.0,0 STARLINK-3528,1 51714U 22016A   23050.39017205  .00011031  00000-0  70971-3 0  9999,2 51714  53.2148 291.4101 0001285 105.9225 254.1909 15.08860269 56265,6917.818,95.436,540.572,538.794,0.0
51714.0,STARLINK-3528,PAYLOAD,2023-02-19 22:04:55,15.08854625,0.0001346,53.2148,289.0294,112.5404,247.5731,0.00025015,3.697e-05,0.0,0 STARLINK-3528,1 51714U 22016A   23050.92008806  .00003697  00000-0  25015-3 0  9993,2 51714  53.2148 289.0294 0001346 112.5404 247.5731 15.08854625 56349,6917.836,95.437,540.632,538.77,0.0
51714.0,STARLINK-3528,PAYLOAD,2023-02-20 09:12:37,15.08850878,0.0001181,53.2143,286.9473,112.8355,247.2762,0.00014993,2.1e-05,0.0,0 STARLINK-3528,1 51714U 22016A   23051.38376651  .00002100  00000-0  14993-3 0  9991,2 51714  53.2143 286.9473 0001181 112.8355 247.2762 15.08850878 55351,6917.847,95.437,540.529,538.895,0.0
51714.0,STARLINK-3528,PAYLOAD,2023-02-20 21:55:42,15.08851417,0.0001324,53.2155,284.57,108.1342,251.9795,4.1514e-05,3.73e-06,0.0,0 STARLINK-3528,1 51714U 22016A   23051.91368476  .00000373  00000-0  41514-4 0  9996,2 51714  53.2155 284.5700 0001324 108.1342 251.9795 15.08851417 56498,6917.845,95.437,540.626,538.795,0.0
51714.0,STARLINK-3528,PAYLOAD,2023-02-21 01:06:28,15.08854874,0.0001297,53.215,283.9746,105.1949,254.9187,0.00010105,1.321e-05,0.0,0 STARLINK-3528,1 51714U 22016A   23052.04616231  .00001321  00000-0  10105-3 0  9991,2 51714  53.2150 283.9746 0001297 105.1949 254.9187 15.08854874 55458,6917.835,95.437,540.597,538.803,0.0
51714.0,STARLINK-3528,PAYLOAD,2023-02-21 18:35:43,15.08842374,0.0001274,53.214,280.704,93.4647,266.6491,3.2195e-05,2.25e-06,0.0,0 STARLINK-3528,1 51714U 22016A   23052.77480560  .00000225  00000-0  32195-4 0  9991,2 51714  53.2140 280.7040 0001274  93.4647 266.6491 15.08842374 56628,6917.873,95.437,540.619,538.857,0.0
51714.0,STARLINK-3528,PAYLOAD,2023-02-21 21:46:29,15.08850253,0.0001212,53.2143,280.1087,93.4377,266.6754,0.00017349,2.475e-05,0.0,0 STARLINK-3528,1 51714U 22016A   23052.90728250  .00002475  00000-0  17349-3 0  9999,2 51714  53.2143 280.1087 0001212  93.4377 266.6754 15.08850253 55589,6917.849,95.437,540.552,538.876,0.0
51714.0,STARLINK-3528,PAYLOAD,2023-02-22 00:57:15,15.08850291,0.0001256,53.2147,279.5138,95.1041,265.0095,0.00023784,3.5e-05,0.0,0 STARLINK-3528,1 51714U 22016A   23053.03976202  .00003500  00000-0  23784-3 0  9996,2 51714  53.2147 279.5138 0001256  95.1041 265.0095 15.08850291 56660,6917.849,95.437,540.583,538.845,0.0
51714.0,STARLINK-3528,PAYLOAD,2023-02-22 15:15:44,15.08833095,0.0001134,53.2139,276.838,90.8682,269.244,-3.8025e-05,-8.93e-06,0.0,0 STARLINK-3528,1 51714U 22016A   23053.63593021 -.00000893  00000-0 -38025-4 0  9995,2 51714  53.2139 276.8380 0001134  90.8682 269.2440 15.08833095 56751,6917.901,95.438,540.551,538.982,0.0
51714.0,STARLINK-3528,PAYLOAD,2023-02-22 21:37:16,15.08835436,0.0001182,53.2139,275.6481,92.8445,267.2682,-5.685e-05,-1.192e-05,0.0,0 STARLINK-3528,1 51714U 22016A   23053.90088958 -.00001192  00000-0 -56850-4 0  9992,2 51714  53.2139 275.6481 0001182  92.8445 267.2682 15.08835436 55736,6917.894,95.438,540.577,538.942,0.0
51714.0,STARLINK-3528,PAYLOAD,2023-02-23 00:48:03,15.08835667,0.0001209,53.2141,275.0531,93.8379,266.2751,-5.1494e-05,-1.107e-05,0.0,0 STARLINK-3528,1 51714U 22016A   23054.03336953 -.00001107  00000-0 -51494-4 0  9993,2 51714  53.2141 275.0531 0001209  93.8379 266.2751 15.08835667 55750,6917.894,95.438,540.595,538.922,0.0
51714.0,STARLINK-3528,PAYLOAD,2023-02-23 21:28:03,15.08848157,0.0001089,53.2136,271.187,91.0677,269.044,0.00013573,1.873e-05,0.0,0 STARLINK-3528,1 51714U 22016A   23054.89448403  .00001873  00000-0  13573-3 0  9994,2 51714  53.2136 271.1870 0001089  91.0677 269.0440 15.08848157 55882,6917.855,95.437,540.474,538.967,0.0
51714.0,STARLINK-3528,PAYLOAD,2023-02-24 00:38:49,15.08850014,0.0001093,53.2137,270.5921,91.514,268.5977,0.00017989,2.577e-05,0.0,0 STARLINK-3528,1 51714U 22016A   23055.02696297  .00002577  00000-0  17989-3 0  9993,2 51714  53.2137 270.5921 0001093  91.5140 268.5977 15.08850014 56962,6917.85,95.437,540.471,538.959,0.0
51714.0,STARLINK-3528,PAYLOAD,2023-02-24 13:21:55,15.08838288,0.0001386,53.2137,268.213,96.5009,263.6141,0.00014898,2.084e-05,0.0,0 STARLINK-3528,1 51714U 22016A   23055.55688968  .00002084  00000-0  14898-3 0  9996,2 51714  53.2137 268.2130 0001386  96.5009 263.6141 15.08838288 55981,6917.886,95.438,540.709,538.792,0.0
51714.0,STARLINK-3528,PAYLOAD,2023-02-24 14:57:18,15.0883764,0.0001283,53.2139,267.9153,95.9582,264.1556,0.00011032,1.468e-05,0.0,0 STARLINK-3528,1 51714U 22016A   23055.62313024  .00001468  00000-0  11032-3 0  9994,2 51714  53.2139 267.9153 0001283  95.9582 264.1556 15.08837640 57056,6917.888,95.438,540.64,538.865,0.0
51714.0,STARLINK-3528,PAYLOAD,2023-02-24 21:18:51,15.08837294,0.0001011,53.2139,266.7263,85.8275,274.2832,0.00010725,1.419e-05,0.0,0 STARLINK-3528,1 51714U 22016A   23055.88809128  .00001419  00000-0  10725-3 0  9991,2 51714  53.2139 266.7263 0001011  85.8275 274.2832 15.08837294 56032,6917.889,95.438,540.453,539.054,0.0
51714.0,STARLINK-3528,PAYLOAD,2023-02-25 06:51:09,15.08838862,0.0001082,53.2137,264.9416,85.4206,274.6909,5.4666e-05,5.82e-06,0.0,0 STARLINK-3528,1 51714U 22016A   23056.28553034  .00000582  00000-0  54666-4 0  9991,2 51714  53.2137 264.9416 0001082  85.4206 274.6909 15.08838862 56095,6917.884,95.438,540.497,539.0,0.0
51714.0,STARLINK-3528,PAYLOAD,2023-02-25 17:58:51,15.08845207,0.0001051,53.2138,262.8594,85.4602,274.651,0.00012541,1.709e-05,0.0,0 STARLINK-3528,1 51714U 22016A   23056.74920772  .00001709  00000-0  12541-3 0  9996,2 51714  53.2138 262.8594 0001051  85.4602 274.6510 15.08845207 57221,6917.864,95.437,540.457,539.002,0.0
51714.0,STARLINK-3528,PAYLOAD,2023-02-25 21:09:37,15.08847933,0.000104,53.2141,262.2649,84.2519,275.8591,0.00019893,2.88e-05,0.0,0 STARLINK-3528,1 51714U 22016A   23056.88168697  .00002880  00000-0  19893-3 0  9999,2 51714  53.2141 262.2649 0001040  84.2519 275.8591 15.08847933 56186,6917.856,95.437,540.441,539.002,0.0
51714.0,STARLINK-3528,PAYLOAD,2023-02-26 13:03:29,15.08842335,0.0001066,53.2136,259.2911,81.7596,278.3517,0.00017748,2.538e-05,0.0,0 STARLINK-3528,1 51714U 22016A   23057.54409010  .00002538  00000-0  17748-3 0  9997,2 51714  53.2136 259.2911 0001066  81.7596 278.3517 15.08842335 56281,6917.873,95.437,540.476,539.001,0.0
51714.0,STARLINK-3528,PAYLOAD,2023-02-26 19:25:01,15.08842233,0.0001117,53.2144,258.1023,82.8644,277.2475,0.0001648,2.336e-05,0.0,0 STARLINK-3528,1 51714U 22016A   23057.80905024  .00002336  00000-0  16480-3 0  9990,2 51714  53.2144 258.1023 0001117  82.8644 277.2475 15.08842233 57385,6917.874,95.437,540.511,538.966,0.0
51714.0,STARLINK-3528,PAYLOAD,2023-02-27 01:46:34,15.08851188,0.0001104,53.2137,256.9121,82.8718,277.24,0.00031083,4.664e-05,0.0,0 STARLINK-3528,1 51714U 22016A   23058.07400590  .00004664  00000-0  31083-3 0  9990,2 51714  53.2137 256.9121 0001104  82.8718 277.2400 15.08851188 57422,6917.846,95.437,540.475,538.947,0.0
51714.0,STARLINK-3528,PAYLOAD,2023-02-27 19:15:48,15.08851382,0.0001029,53.2142,253.6388,97.1003,263.0106,0.00027403,4.077e-05,0.0,0 STARLINK-3528,1 51714U 22016A   23058.80264459  .00004077  00000-0  27403-3 0  9992,2 51714  53.2142 253.6388 0001029  97.1003 263.0106 15.08851382 57533,6917.846,95.437,540.422,538.999,0.0
